XRISM                   
1 57800U 23137A   23266.10103276  .00005192  00000+0  42325-3 0  9990
2 57800  31.0033 274.6513 0009910  77.0694 283.1047 14.97949460  2417
